{
    "links": {
        "self": "http://www.neowsapp.com/rest/v1/neo/3774435?api_key=iIulBulltgU6a56xZRHN4H3l9WmuAYTsLGpBGhQ2"
    },
    "id": "3774435",
    "neo_reference_id": "3774435",
    "name": "(2017 HY49)",
    "designation": "2017 HY49",
    "nasa_jpl_url": "http://ssd.jpl.nasa.gov/sbdb.cgi?sstr=3774435",
    "absolute_magnitude_h": 22.5,
    "estimated_diameter": {
        "kilometers": {
            "estimated_diameter_min": 0.0840533402,
            "estimated_diameter_max": 0.1879489824
        },
        "meters": {
            "estimated_diameter_min": 84.0533402073,
            "estimated_diameter_max": 187.9489824394
        },
        "miles": {
            "estimated_diameter_min": 0.0522283081,
            "estimated_diameter_max": 0.1167860472
        },
        "feet": {
            "estimated_diameter_min": 275.7655606856,
            "estimated_diameter_max": 616.6305395464
        }
    },
    "is_potentially_hazardous_asteroid": false,
    "close_approach_data": [
        {
            "close_approach_date": "2014-05-08",
            "close_approach_date_full": "2014-May-08 16:39",
            "epoch_date_close_approach": 1399567140000,
            "relative_velocity": {
                "kilometers_per_second": "26.7884114131",
                "kilometers_per_hour": "96438.2810873072",
                "miles_per_hour": "59922.9974900549"
            },
            "miss_distance": {
                "astronomical": "0.0715272193",
                "lunar": "27.8240883077",
                "kilometers": "10700319.654302891",
                "miles": "6648870.3209702558"
            },
            "orbiting_body": "Earth"
        },
        {
            "close_approach_date": "2017-05-12",
            "close_approach_date_full": "2017-May-12 13:11",
            "epoch_date_close_approach": 1494594660000,
            "relative_velocity": {
                "kilometers_per_second": "24.0796883398",
                "kilometers_per_hour": "86686.8780233912",
                "miles_per_hour": "53863.8548473677"
            },
            "miss_distance": {
                "astronomical": "0.1060400635",
                "lunar": "41.2495847015",
                "kilometers": "15863367.634264745",
                "miles": "9857039.570933681"
            },
            "orbiting_body": "Earth"
        },
        {
            "close_approach_date": "2020-05-15",
            "close_approach_date_full": "2020-May-15 14:58",
            "epoch_date_close_approach": 1589554680000,
            "relative_velocity": {
                "kilometers_per_second": "21.7062948763",
                "kilometers_per_hour": "78142.6615546084",
                "miles_per_hour": "48554.811008751"
            },
            "miss_distance": {
                "astronomical": "0.2155380802",
                "lunar": "83.8443131978",
                "kilometers": "32244037.701809174",
                "miles": "20035515.9686836412"
            },
            "orbiting_body": "Earth"
        }
    ],
    "orbital_data": {
        "orbit_id": "6",
        "orbit_determination_date": "2017-05-14 06:17:53",
        "first_observation_date": "2017-04-30",
        "last_observation_date": "2017-05-14",
        "data_arc_in_days": 14,
        "observations_used": 56,
        "orbit_uncertainty": "8",
        "minimum_orbit_intersection": ".0630379",
        "jupiter_tisserand_invariant": "4.595",
        "epoch_osculation": "2457876.5",
        "eccentricity": ".6169959998411498",
        "semi_major_axis": "1.316373219751545",
        "inclination": "35.74413600918852",
        "ascending_node_longitude": "45.05401944978748",
        "orbital_period": "551.6542705214208",
        "perihelion_distance": ".5041762088668269",
        "perihelion_argument": "295.8655933337063",
        "aphelion_distance": "2.128570230636263",
        "perihelion_time": "2457945.634174564081",
        "mean_anomaly": "314.8842378768411",
        "mean_motion": ".6525826395936895",
        "equinox": "J2000",
        "orbit_class": {
            "orbit_class_type": "APO",
            "orbit_class_description": "Near-Earth asteroid orbits which cross the Earth’s orbit similar to that of 1862 Apollo",
            "orbit_class_range": "a (semi-major axis) > 1.0 AU; q (perihelion) < 1.017 AU"
        }
    },
    "is_sentry_object": false
}